NORAD_CAT_ID,OBJECT_NAME,OBJECT_TYPE,EPOCH,MEAN_MOTION,ECCENTRICITY,INCLINATION,RA_OF_ASC_NODE,ARG_OF_PERICENTER,MEAN_ANOMALY,BSTAR,MEAN_MOTION_DOT,MEAN_MOTION_DDOT,TLE_LINE0,TLE_LINE1,TLE_LINE2,SEMIMAJOR_AXIS,PERIOD,APOGEE,PERIGEE,DECAYED
55939.0,STARLINK-5918,PAYLOAD,2023-06-09 19:53:52,15.69934573,0.0003752,69.9973,304.7248,269.8678,90.2088,-3.4053e-07,-2.54e-06,0.0,0 STARLINK-5918,1 55939U 23037AB  23160.82908338 -.00000254  00000-0 -34053-6 0  9993,2 55939  69.9973 304.7248 0003752 269.8678  90.2088 15.69934573 13729,6737.221,91.724,361.614,356.558,0.0
55939.0,STARLINK-5918,PAYLOAD,2023-06-10 09:39:39,15.69929621,0.0003842,69.9972,303.113,275.249,84.8268,9.0578e-06,8.76e-06,0.0,0 STARLINK-5918,1 55939U 23037AB  23161.40253692  .00000876  00000-0  90578-5 0  9995,2 55939  69.9972 303.1130 0003842 275.2490  84.8268 15.69929621 13811,6737.235,91.724,361.689,356.512,0.0
55939.0,STARLINK-5918,PAYLOAD,2023-06-10 14:14:54,15.69922172,0.0003673,69.999,302.5756,273.3161,86.7614,-6.987e-06,-1.053e-05,0.0,0 STARLINK-5918,1 55939U 23037AB  23161.59368956 -.00001053  00000-0 -69870-5 0  9996,2 55939  69.9990 302.5756 0003673 273.3161  86.7614 15.69922172 13500,6737.257,91.724,361.596,356.647,0.0
55939.0,STARLINK-5918,PAYLOAD,2023-06-11 13:11:11,15.69926598,0.0003761,69.9974,299.8885,272.1963,87.8802,5.8535e-06,4.91e-06,0.0,0 STARLINK-5918,1 55939U 23037AB  23162.54943944  .00000491  00000-0  58535-5 0  9997,2 55939  69.9974 299.8885 0003761 272.1963  87.8802 15.69926598 13651,6737.244,91.724,361.643,356.575,0.0
55939.0,STARLINK-5918,PAYLOAD,2023-06-11 19:18:12,15.69926915,0.000372,69.9974,299.1718,272.3849,87.6921,5.8792e-06,4.94e-06,0.0,0 STARLINK-5918,1 55939U 23037AB  23162.80430562  .00000494  00000-0  58792-5 0  9991,2 55939  69.9974 299.1718 0003720 272.3849  87.6921 15.69926915 13696,6737.243,91.724,361.614,356.602,0.0
55939.0,STARLINK-5918,PAYLOAD,2023-06-12 15:10:58,15.69921564,0.0003728,69.9972,296.8431,270.8425,89.2343,8.2421e-06,7.78e-06,0.0,0 STARLINK-5918,1 55939U 23037AB  23163.63262581  .00000778  00000-0  82421-5 0  9998,2 55939  69.9972 296.8431 0003728 270.8425  89.2343 15.69921564 14165,6737.258,91.724,361.635,356.612,0.0
55939.0,STARLINK-5918,PAYLOAD,2023-06-13 08:00:15,15.69922665,0.0003373,69.9976,294.8723,268.8713,91.2096,3.8772e-06,2.53e-06,0.0,0 STARLINK-5918,1 55939U 23037AB  23164.33351013  .00000253  00000-0  38772-5 0  9993,2 55939  69.9976 294.8723 0003373 268.8713  91.2096 15.69922665 13939,6737.255,91.724,361.393,356.848,0.0
55939.0,STARLINK-5918,PAYLOAD,2023-06-14 02:21:16,15.6992753,0.000316,69.998,292.7223,269.5893,90.494,2.4863e-06,8.6e-07,0.0,0 STARLINK-5918,1 55939U 23037AB  23165.09810865  .00000086  00000-0  24863-5 0  9992,2 55939  69.9980 292.7223 0003160 269.5893  90.4940 15.69927530 14393,6737.241,91.724,361.235,356.977,0.0
55939.0,STARLINK-5918,PAYLOAD,2023-06-14 13:03:32,15.69923532,0.0003531,69.9976,291.468,267.3582,92.7209,4.2548e-06,2.99e-06,0.0,0 STARLINK-5918,1 55939U 23037AB  23165.54412720  .00000299  00000-0  42548-5 0  9996,2 55939  69.9976 291.4680 0003531 267.3582  92.7209 15.69923532 14126,6737.253,91.724,361.497,356.739,0.0
55939.0,STARLINK-5918,PAYLOAD,2023-06-15 01:17:33,15.69920786,0.0003368,69.997,290.0355,271.1369,88.944,1.6631e-06,-1.3e-07,0.0,0 STARLINK-5918,1 55939U 23037AB  23166.05386423 -.00000013  00000-0  16631-5 0  9992,2 55939  69.9970 290.0355 0003368 271.1369  88.9440 15.69920786 14546,6737.261,91.724,361.395,356.857,0.0
55939.0,STARLINK-5918,PAYLOAD,2023-06-15 11:59:49,15.69925243,0.0003379,69.998,288.7808,267.5061,92.5748,7.8512e-06,7.31e-06,0.0,0 STARLINK-5918,1 55939U 23037AB  23166.49987764  .00000731  00000-0  78512-5 0  9997,2 55939  69.9980 288.7808 0003379 267.5061  92.5748 15.69925243 14279,6737.248,91.724,361.389,356.836,0.0
55939.0,STARLINK-5918,PAYLOAD,2023-06-15 18:06:49,15.69929105,0.0003627,69.9972,288.0636,265.4948,94.5833,1.0668e-05,1.07e-05,0.0,0 STARLINK-5918,1 55939U 23037AB  23166.75473972  .00001070  00000-0  10668-4 0  9991,2 55939  69.9972 288.0636 0003627 265.4948  94.5833 15.69929105 14659,6737.237,91.724,361.545,356.658,0.0
55939.0,STARLINK-5918,PAYLOAD,2023-06-16 13:59:36,15.69927569,0.0003794,69.9981,285.7359,269.6616,90.4145,1.3803e-05,1.447e-05,0.0,0 STARLINK-5918,1 55939U 23037AB  23167.58305574  .00001447  00000-0  13803-4 0  9997,2 55939  69.9981 285.7359 0003794 269.6616  90.4145 15.69927569 14448,6737.241,91.724,361.662,356.55,0.0
55939.0,STARLINK-5918,PAYLOAD,2023-06-16 17:03:06,15.69922486,0.0003736,69.9984,285.3778,268.1321,91.9447,8.4446e-06,8.02e-06,0.0,0 STARLINK-5918,1 55939U 23037AB  23167.71049321  .00000802  00000-0  84446-5 0  9993,2 55939  69.9984 285.3778 0003736 268.1321  91.9447 15.69922486 14461,6737.256,91.724,361.638,356.604,0.0
55939.0,STARLINK-5918,PAYLOAD,2023-06-17 11:24:09,15.6991555,0.0003389,69.9987,283.2272,272.615,87.4658,-2.9758e-06,-5.7e-06,0.0,0 STARLINK-5918,1 55939U 23037AB  23168.47510597 -.00000570  00000-0 -29758-5 0  9994,2 55939  69.9987 283.2272 0003389 272.6150  87.4658 15.69915550 14585,6737.276,91.725,361.424,356.857,0.0
55939.0,STARLINK-5918,PAYLOAD,2023-06-17 14:27:39,15.69912942,0.0003273,69.9987,282.8688,272.7114,87.3707,-1.3037e-06,-3.69e-06,0.0,0 STARLINK-5918,1 55939U 23037AB  23168.60254156 -.00000369  00000-0 -13037-5 0  9994,2 55939  69.9987 282.8688 0003273 272.7114  87.3707 15.69912942 14940,6737.283,91.725,361.353,356.943,0.0
55939.0,STARLINK-5918,PAYLOAD,2023-06-17 15:59:23,15.69930377,0.0003554,69.9986,282.6899,272.9902,87.0887,1.7174e-05,1.853e-05,0.0,0 STARLINK-5918,1 55939U 23037AB  23168.66624316  .00001853  00000-0  17174-4 0  9991,2 55939  69.9986 282.6899 0003554 272.9902  87.0887 15.69930377 14612,6737.233,91.724,361.493,356.704,0.0
55939.0,STARLINK-5918,PAYLOAD,2023-06-18 01:09:54,15.69928198,0.0003713,69.9981,281.6157,273.0625,87.0145,8.4243e-06,8e-06,0.0,0 STARLINK-5918,1 55939U 23037AB  23169.04854481  .00000800  00000-0  84243-5 0  9995,2 55939  69.9981 281.6157 0003713 273.0625  87.0145 15.69928198 15014,6737.239,91.724,361.606,356.603,0.0
55939.0,STARLINK-5918,PAYLOAD,2023-06-18 07:16:55,15.69923856,0.0003506,69.9981,280.8993,271.1476,88.9318,6.9164e-06,6.19e-06,0.0,0 STARLINK-5918,1 55939U 23037AB  23169.30341478  .00000619  00000-0  69164-5 0  9994,2 55939  69.9981 280.8993 0003506 271.1476  88.9318 15.69923856 14710,6737.252,91.724,361.479,356.755,0.0
55939.0,STARLINK-5918,PAYLOAD,2023-06-18 22:00:00,15.69950995,0.000355,70.0007,279.1739,270.0939,314.9355,-0.00068217,-0.00081541,0.0,0 STARLINK-5918,1 55939U 23037AB  23169.91667824 -.00081541  00000-0 -68217-3 0  9998,2 55939  70.0007 279.1739 0003550 270.0939 314.9355 15.69950995  1300,6737.174,91.723,361.431,356.648,0.0
55939.0,STARLINK-5918,PAYLOAD,2023-06-19 10:48:27,15.69917811,0.0003413,69.9982,277.6747,270.3984,89.6821,5.2755e-06,4.21e-06,0.0,0 STARLINK-5918,1 55939U 23037AB  23170.45032098  .00000421  00000-0  52755-5 0  9996,2 55939  69.9982 277.6747 0003413 270.3984  89.6821 15.69917811 15233,6737.269,91.725,361.434,356.835,0.0
55939.0,STARLINK-5918,PAYLOAD,2023-06-19 13:51:57,15.69927526,0.0003788,69.9978,277.3176,265.7687,94.3076,7.9611e-06,7.44e-06,0.0,0 STARLINK-5918,1 55939U 23037AB  23170.57774698  .00000744  00000-0  79611-5 0  9996,2 55939  69.9978 277.3176 0003788 265.7687  94.3076 15.69927526 14917,6737.241,91.724,361.658,356.554,0.0
55939.0,STARLINK-5918,PAYLOAD,2023-06-20 00:34:13,15.69923932,0.000395,69.9987,276.0625,270.3329,89.7414,-1.2077e-06,-3.58e-06,0.0,0 STARLINK-5918,1 55939U 23037AB  23171.02376812 -.00000358  00000-0 -12077-5 0  9999,2 55939  69.9987 276.0625 0003950 270.3329  89.7414 15.69923932 15325,6737.252,91.724,361.778,356.455,0.0
55939.0,STARLINK-5918,PAYLOAD,2023-06-20 11:16:36,15.69834373,0.0005371,69.9983,274.8077,261.6039,98.4548,-9.21e-05,-0.00011238,0.0,0 STARLINK-5918,1 55939U 23037AB  23171.46986830 -.00011238  00000-0 -92100-4 0  9997,2 55939  69.9983 274.8077 0005371 261.6039  98.4548 15.69834373 15053,6737.508,91.729,362.992,355.754,0.0
55939.0,STARLINK-5918,PAYLOAD,2023-06-20 17:23:06,15.70205237,0.0013971,69.9989,274.0917,239.2603,120.7217,0.0003021,0.00036888,0.0,0 STARLINK-5918,1 55939U 23037AB  23171.72437772  .00036888  00000-0  30210-3 0  9991,2 55939  69.9989 274.0917 0013971 239.2603 120.7217 15.70205237 15434,6736.447,91.708,367.723,348.9,0.0
55939.0,STARLINK-5918,PAYLOAD,2023-06-21 06:00:00,15.67910857,0.0003563,70.0006,272.6197,269.8281,174.732,-0.0092113,-0.00928722,0.0,0 STARLINK-5918,1 55939U 23037AB  23172.25001157 -.00928722  00000-0 -92113-2 0  9992,2 55939  70.0006 272.6197 0003563 269.8281 174.7320 15.67910857 15518,6743.017,91.842,367.285,362.48,0.0
55939.0,STARLINK-5918,PAYLOAD,2023-06-21 14:00:01,15.67220918,0.0003606,70.0004,271.686,273.4973,251.5865,-0.0090063,-0.00873755,0.0,0 STARLINK-5918,1 55939U 23037AB  23172.58334491 -.00873755  00000-0 -90063-2 0  9995,2 55939  70.0004 271.6860 0003606 273.4973 251.5865 15.67220918  1301,6744.996,91.882,369.293,364.429,0.0
55939.0,STARLINK-5918,PAYLOAD,2023-06-21 22:00:01,15.66607824,0.0003543,69.9998,270.753,269.3185,335.5359,-0.0099587,-0.00950041,0.0,0 STARLINK-5918,1 55939U 23037AB  23172.91668981 -.00950041  00000-0 -99587-2 0  9990,2 55939  69.9998 270.7530 0003543 269.3185 335.5359 15.66607824  1308,6746.756,91.918,371.011,366.23,0.0
55939.0,STARLINK-5918,PAYLOAD,2023-06-22 04:00:00,15.66092216,0.0003561,69.9998,270.0539,264.1915,309.8799,-0.0094327,-0.00887076,0.0,0 STARLINK-5918,1 55939U 23037AB  23173.16667824 -.00887076  00000-0 -94327-2 0  9997,2 55939  69.9998 270.0539 0003561 264.1915 309.8799 15.66092216 15652,6748.236,91.949,372.504,367.698,0.0
55939.0,STARLINK-5918,PAYLOAD,2023-06-22 14:00:01,15.65256482,0.0003684,69.9999,268.8899,274.5791,127.3237,-0.0095457,-0.00857168,0.0,0 STARLINK-5918,1 55939U 23037AB  23173.58334491 -.00857168  00000-0 -95457-2 0  9998,2 55939  69.9999 268.8899 0003684 274.5791 127.3237 15.65256482 15724,6750.638,91.998,374.99,370.016,0.0
